[{"OBJECT_NAME":"YAOGAN-43 01D","OBJECT_ID":"2024-148D","EPOCH":"2026-03-09T10:27:16.254720","MEAN_MOTION":15.28369377,"ECCENTRICITY":0.00025569,"INCLINATION":35.001,"RA_OF_ASC_NODE":61.7102,"ARG_OF_PERICENTER":326.2473,"MEAN_ANOMALY":33.808,"EPHEMERIS_TYPE":0,"CLASSIFICATION_TYPE":"U","NORAD_CAT_ID":60461,"ELEMENT_SET_NO":999,"REV_AT_EPOCH":8700,"BSTAR":0.00037765912,"MEAN_MOTION_DOT":0.00010676,"MEAN_MOTION_DDOT":0},{"OBJECT_NAME":"STARLINK-35434","OBJECT_ID":"2025-245N","EPOCH":"2026-03-09T20:57:17.623296","MEAN_MOTION":15.30207836,"ECCENTRICITY":7.782e-5,"INCLINATION":53.1567,"RA_OF_ASC_NODE":283.1123,"ARG_OF_PERICENTER":94.0216,"MEAN_ANOMALY":266.0874,"EPHEMERIS_TYPE":0,"CLASSIFICATION_TYPE":"U","NORAD_CAT_ID":66246,"ELEMENT_SET_NO":999,"REV_AT_EPOCH":2107,"BSTAR":0.00082494665,"MEAN_MOTION_DOT":0.00024159,"MEAN_MOTION_DDOT":0}]
