YAOGAN-43 01D           
1 60461U 24148D   26068.43560480  .00010676  00000+0  37766-3 0  9999
2 60461  35.0010  61.7102 0002556 326.2473  33.8080 15.28369377 87008
STARLINK-35434          
1 66246U 25245N   26068.87312064  .00024159  00000+0  82495-3 0  9996
2 66246  53.1567 283.1123 0000778  94.0216 266.0874 15.30207836 21075
